1 19299U 63014EL  17100.62071851 +.00000043 +00000-0 +13420-1 0  9991
2 19299 087.1725 072.0769 0805109 197.2332 304.9173 08.67898262937432
1 19299U 63014EL  17101.90547421 +.00000042 +00000-0 +13042-1 0  9993
2 19299 087.1727 071.9445 0805040 195.8492 359.1075 08.67898168937548
1 19299U 63014EL  17102.58673389 +.00000083 +00000-0 +26358-1 0  9990
2 19299 087.1729 071.8743 0804994 195.1108 327.6929 08.67898339937597
1 19299U 63014EL  17103.61788150 +.00000078 +00000-0 +24653-1 0  9998
2 19299 087.1730 071.7681 0804952 193.9991 309.4922 08.67898412937682
1 19299U 63014EL  17104.89631480 +.00000195 +00000-0 +63331-1 0  9998
2 19299 087.1730 071.6364 0804935 192.6180 343.9331 08.67898742937791
1 19299U 63014EL  17105.58039215 +.00000086 +00000-0 +27337-1 0  9998
2 19299 087.1729 071.5660 0804924 191.8805 321.3185 08.67898539937869
1 19299U 63014EL  17106.61463604 +.00000025 +00000-0 +73054-2 0  9997
2 19299 087.1727 071.4594 0804915 190.7601 312.7979 08.67898551937953
1 19299U 63014EL  17107.42394378 +.00000151 +00000-0 +48918-1 0  9998
2 19299 087.1724 071.3759 0804929 189.8796 321.4719 08.67898931938021
1 19299U 63014EL  17108.57296649 +.00000113 +00000-0 +36377-1 0  9991
2 19299 087.1718 071.2574 0804987 188.6392 311.5730 08.67898960938116
1 19299U 63014EL  17109.61155366 +.00000199 +00000-0 +64691-1 0  9991
2 19299 087.1712 071.1502 0805035 187.5104 316.6298 08.67899552938207
1 19299U 63014EL  17110.52956052 -.00000021 +00000-0 -79593-2 0  9998
2 19299 087.1708 071.0554 0805105 186.5126 304.9332 08.67899099938293
1 19299U 63014EL  17111.45280949 +.00000521 +00000-0 +17070+0 0  9998
2 19299 087.1704 070.9600 0805166 185.5110 309.6199 08.67901175938368
1 19299U 63014EL  17112.49031927 +.00000034 +00000-0 +10199-1 0  9999
2 19299 087.1700 070.8529 0805297 184.3834 311.3120 08.67900167938452
1 19299U 63014EL  17113.41841986 +.00000352 +00000-0 +11499+0 0  9991
2 19299 087.1698 070.7570 0805433 183.3751 331.1609 08.67901534938543
1 19299U 63014EL  17114.45121058 +.00000454 +00000-0 +14861+0 0  9996
2 19299 087.1698 070.6504 0805572 182.2541 318.1130 08.67902264938622
1 19299U 63014EL  17115.60342134 +.00000296 +00000-0 +96240-1 0  9991
2 19299 087.1698 070.5316 0805765 180.9996 318.1983 08.67902477938739
1 19299U 63014EL  17116.41599064 +.00000418 +00000-0 +13638+0 0  9991
2 19299 087.1698 070.4478 0805935 180.1225 337.0684 08.67903216938801
1 19299U 63014EL  17117.44953122 +.00000599 +00000-0 +19599+0 0  9996
2 19299 087.1698 070.3413 0806124 178.9993 326.3721 08.67904378938899
1 19299U 63014EL  17119.41277604 +.00000401 +00000-0 +13083+0 0  9993
2 19299 087.1693 070.1388 0806571 176.8700 340.5453 08.67905265939057
1 19299U 63014EL  17122.52529250 +.00000726 +00000-0 +23748+0 0  9995
2 19299 087.1674 069.8172 0807395 173.4954 345.6625 08.67910104939326
1 19299U 63014EL  17123.44180626 +.00000861 +00000-0 +28186+0 0  9998
2 19299 087.1667 069.7225 0807678 172.4998 329.3403 08.67911961939412
1 19299U 63014EL  17124.47525142 +.00000849 +00000-0 +27795+0 0  9999
2 19299 087.1662 069.6156 0808024 171.3771 318.3787 08.67913459939509
1 19299U 63014EL  17124.47525142 +.00000849 +00000-0 +27795+0 0  9999
2 19299 087.1662 069.6156 0808024 171.3771 318.3787 08.67913459939497
1 19299U 63014EL  17125.51634810 +.00000675 +00000-0 +22059+0 0  9993
2 19299 087.1659 069.5079 0808393 170.2508 331.3258 08.67914600939588
1 19299U 63014EL  17126.44098444 +.00000806 +00000-0 +26366+0 0  9994
2 19299 087.1657 069.4123 0808745 169.2488 340.3962 08.67916484939675
1 19299U 63014EL  17127.47410282 +.00000782 +00000-0 +25539+0 0  9990
2 19299 087.1657 069.3056 0809137 168.1309 328.4278 08.67918111939750
1 19299U 63014EL  17128.40005322 +.00001239 +00000-0 +40541+0 0  9997
2 19299 087.1658 069.2100 0809544 167.1253 341.6199 08.67921191939840
1 19299U 63014EL  17129.44012906 +.00000813 +00000-0 +26564+0 0  9994
2 19299 087.1659 069.1026 0809963 165.9973 351.4043 08.67921792939920
1 19299U 63014EL  17130.46797760 +.00001223 +00000-0 +40002+0 0  9995
2 19299 087.1660 068.9965 0810408 164.8906 322.9877 08.67924861940011
1 19299U 63014EL  17131.51007179 +.00001306 +00000-0 +42690+0 0  9997
2 19299 087.1659 068.8889 0810876 163.7649 339.0938 08.67927255940112
1 19299U 63014EL  17131.51007179 +.00001306 +00000-0 +42690+0 0  9997
2 19299 087.1659 068.8889 0810876 163.7649 339.0938 08.67927255940101
1 19299U 63014EL  17132.54834694 +.00001203 +00000-0 +39286+0 0  9994
2 19299 087.1657 068.7817 0811381 162.6433 343.2751 08.67929312940195
1 19299U 63014EL  17134.51158721 +.00001054 +00000-0 +34390+0 0  9998
2 19299 087.1649 068.5789 0812363 160.5182 357.6194 08.67933403940366
1 19299U 63014EL  17135.42762229 +.00001422 +00000-0 +46410+0 0  9998
2 19299 087.1645 068.4841 0812809 159.5332 339.8728 08.67936859940453
1 19299U 63014EL  17136.46738619 +.00001353 +00000-0 +44139+0 0  9998
2 19299 087.1641 068.3765 0813345 158.4153 348.7383 08.67939414940533
1 19299U 63014EL  17137.49807053 +.00001323 +00000-0 +43110+0 0  9996
2 19299 087.1635 068.2698 0813945 157.2977 329.2536 08.67942269940623
1 19299U 63014EL  17138.54100631 +.00001431 +00000-0 +46614+0 0  9993
2 19299 087.1630 068.1619 0814531 156.1732 348.0561 08.67945526940726
1 19299U 63014EL  17138.54100631 +.00001431 +00000-0 +46614+0 0  9993
2 19299 087.1630 068.1619 0814531 156.1732 348.0561 08.67945526940715
1 19299U 63014EL  17139.46071699 +.00001415 +00000-0 +46075+0 0  9999
2 19299 087.1629 068.0666 0815077 155.1824 341.8332 08.67948271940808
1 19299U 63014EL  17140.49557046 +.00001253 +00000-0 +40775+0 0  9990
2 19299 087.1628 067.9595 0815676 154.0655 335.4034 08.67950971940887
1 19299U 63014EL  17141.42128626 +.00001517 +00000-0 +49350+0 0  9993
2 19299 087.1629 067.8637 0816230 153.0710 347.9624 08.67954507940974
1 19299U 63014EL  17142.33970823 +.00001615 +00000-0 +52547+0 0  9999
2 19299 087.1631 067.7688 0816811 152.0866 337.7388 08.67957806941057
1 19299U 63014EL  17143.38276750 +.00001438 +00000-0 +46728+0 0  9990
2 19299 087.1633 067.6610 0817487 150.9682 356.9752 08.67960402941139
1 19299U 63014EL  17144.30073025 +.00001577 +00000-0 +51245+0 0  9997
2 19299 087.1636 067.5661 0818068 149.9841 345.3358 08.67963645941224
1 19299U 63014EL  17144.41620865 +.00001493 +00000-0 +48483+0 0  9996
2 19299 087.1636 067.5541 0818156 149.8595 346.1724 08.67963738941223
1 19299U 63014EL  17145.45317270 +.00001564 +00000-0 +50774+0 0  9999
2 19299 087.1638 067.4469 0818819 148.7504 346.3871 08.67967250941315
1 19299U 63014EL  17146.49231288 +.00001587 +00000-0 +51492+0 0  9991
2 19299 087.1637 067.3395 0819476 147.6406 353.4133 08.67970820941407
1 19299U 63014EL  17147.53071920 +.00001695 +00000-0 +54959+0 0  9993
2 19299 087.1635 067.2320 0820202 146.5297 358.1622 08.67974689941498
1 19299U 63014EL  17148.44967689 +.00001722 +00000-0 +55815+0 0  9993
2 19299 087.1632 067.1369 0820822 145.5497 349.6741 08.67978117941583
1 19299U 63014EL  17149.49263104 +.00001640 +00000-0 +53127+0 0  9993
2 19299 087.1628 067.0287 0821581 144.4368 008.6580 08.67981734941665
1 19299U 63014EL  17150.40954117 +.00001835 +00000-0 +59419+0 0  9993
2 19299 087.1626 066.9336 0822247 143.4595 353.7970 08.67985826941750
1 19299U 63014EL  17151.44658295 +.00001527 +00000-0 +49383+0 0  9993
2 19299 087.1624 066.8261 0823017 142.3566 354.3311 08.67989094941843
1 19299U 63014EL  17152.48829074 +.00001488 +00000-0 +48082+0 0  9994
2 19299 087.1625 066.7180 0823812 141.2479 009.4608 08.67992910941935
1 19299U 63014EL  17153.40620001 +.00001644 +00000-0 +53102+0 0  9999
2 19299 087.1626 066.6229 0824515 140.2718 357.7581 08.67996986942000
1 19299U 63014EL  17154.44421542 +.00001636 +00000-0 +52819+0 0  9998
2 19299 087.1629 066.5154 0825307 139.1725 001.3734 08.68000955942098
1 19299U 63014EL  17154.75516208 +.00001951 +00000-0 +62996+0 0  9993
2 19299 087.1630 066.4832 0825553 138.8405 253.0333 08.68002967942137
1 19299U 63014EL  17155.48279716 +.00001680 +00000-0 +54184+0 0  9993
2 19299 087.1633 066.4079 0826105 138.0720 006.7733 08.68004946942180
1 19299U 63014EL  17156.28804575 +.00001914 +00000-0 +61731+0 0  9995
2 19299 087.1637 066.3246 0826730 137.2198 003.0563 08.68008824942262
1 19299U 63014EL  17157.43893280 +.00002042 +00000-0 +65831+0 0  9992
2 19299 087.1641 066.2056 0827651 136.0046 359.4200 08.68013652942358
1 19299U 63014EL  17158.24304604 +.00001947 +00000-0 +62710+0 0  9995
2 19299 087.1643 066.1224 0828252 135.1560 352.1733 08.68016588942436
1 19299U 63014EL  17159.39514326 +.00001995 +00000-0 +64210+0 0  9996
2 19299 087.1645 066.0033 0829174 133.9383 352.3516 08.68021283942527
1 19299U 63014EL  17159.71059024 +.00002277 +00000-0 +73281+0 0  9993
2 19299 087.1645 065.9707 0829436 133.6049 258.0941 08.68023383942561
1 19299U 63014EL  17160.43309022 +.00002055 +00000-0 +66084+0 0  9997
2 19299 087.1645 065.8959 0830003 132.8415 355.8395 08.68025639942610
1 19299U 63014EL  17161.36243833 +.00001893 +00000-0 +60843+0 0  9993
2 19299 087.1643 065.7997 0830775 131.8595 019.9786 08.68029009942700
1 19299U 63014EL  17162.39429615 +.00001986 +00000-0 +63776+0 0  9992
2 19299 087.1641 065.6929 0831582 130.7755 004.4642 08.68033653942794
1 19299U 63014EL  17162.70701278 +.00002233 +00000-0 +71705+0 0  9992
2 19299 087.1641 065.6605 0831839 130.4467 261.6870 08.68035685942828
1 19299U 63014EL  17163.43363951 +.00002097 +00000-0 +67317+0 0  9997
2 19299 087.1638 065.5853 0832419 129.6785 012.3626 08.68038493942882
1 19299U 63014EL  17164.35345240 +.00002005 +00000-0 +64292+0 0  9998
2 19299 087.1637 065.4899 0833182 128.7128 006.7419 08.68042125942962
1 19299U 63014EL  17165.27895874 +.00002144 +00000-0 +68731+0 0  9999
2 19299 087.1636 065.3939 0833988 127.7395 018.9283 08.68046415943033
1 19299U 63014EL  17166.15644747  .00002176  00000-0  10000-3 0  9993
2 19299  87.1557  65.3002 0831037 127.3800 240.6058  8.68051636943299
1 19299U 63014EL  17166.31527137 +.00002339 +00000-0 +74937+0 0  9990
2 19299 087.1636 065.2864 0834820 126.6547 017.3932 08.68051367943128
